{"type": "FeatureCollection", "features": [ {"type": "Feature", "properties": {"norad_id": 32289, "name": "YAOGAN-3", "group": "resource", "lat": 81.31245325347804, "lon": -53.2107407913152, "alt_km": 590.1351009441069, "timestamp": "2025-12-10T11:33:53.047806+00:00", "meta": {"OBJECT_NAME": "YAOGAN-3", "OBJECT_ID": "2007-055A", "EPOCH": "2025-12-10T04:43:53.429952", "MEAN_MOTION": 14.89834297, "ECCENTRICITY": 0.0001295, "INCLINATION": 97.8366, "RA_OF_ASC_NODE": 10.8448, "ARG_OF_PERICENTER": 73.316, "MEAN_ANOMALY": 286.82, "EPHEMERIS_TYPE": 0, "CLASSIFICATION_TYPE": "U", "NORAD_CAT_ID": 32289, "ELEMENT_SET_NO": 999, "REV_AT_EPOCH": 97771, "BSTAR": 0.00010534, "MEAN_MOTION_DOT": 9.56e-06, "MEAN_MOTION_DDOT": 0}, "tle": {"line1": "1 32289U 07055A   25344.19714618  .00000956  00000+0  10534-3 0  9991", "line2": "2 32289  97.8366  10.8448 0001295  73.3160 286.8200 14.89834297977719"}}, "geometry": {"type": "Point", "coordinates": [-53.2107407913152, 81.31245325347804]}}, {"type": "Feature", "properties": {"norad_id": 32376, "name": "COSMO-SKYMED 2", "group": "resource", "lat": 66.37349680638887, "lon": 147.37832753541815, "alt_km": 615.016171600907, "timestamp": "2025-12-10T11:33:53.047817+00:00", "meta": {"OBJECT_NAME": "COSMO-SKYMED 2", "OBJECT_ID": "2007-059A", "EPOCH": "2025-12-10T04:46:46.786368", "MEAN_MOTION": 14.82161088, "ECCENTRICITY": 0.0001532, "INCLINATION": 97.8812, "RA_OF_ASC_NODE": 165.5611, "ARG_OF_PERICENTER": 85.3106, "MEAN_ANOMALY": 274.8282, "EPHEMERIS_TYPE": 0, "CLASSIFICATION_TYPE": "U", "NORAD_CAT_ID": 32376, "ELEMENT_SET_NO": 999, "REV_AT_EPOCH": 97400, "BSTAR": 0.00011748, "MEAN_MOTION_DOT": 8.83e-06, "MEAN_MOTION_DDOT": 0}, "tle": {"line1": "1 32376U 07059A   25344.19915262  .00000883  00000+0  11748-3 0  9997", "line2": "2 32376  97.8812 165.5611 0001532  85.3106 274.8282 14.82161088974009"}}, "geometry": {"type": "Point", "coordinates": [147.37832753541815, 66.37349680638887]}}, {"type": "Feature", "properties": {"norad_id": 32382, "name": "RADARSAT-2", "group": "resource", "lat": 76.87412234557412, "lon": -51.24260657675773, "alt_km": 783.7273482121809, "timestamp": "2025-12-10T11:33:53.047830+00:00", "meta": {"OBJECT_NAME": "RADARSAT-2", "OBJECT_ID": "2007-061A", "EPOCH": "2025-12-10T04:28:28.955136", "MEAN_MOTION": 14.29981149, "ECCENTRICITY": 0.000113, "INCLINATION": 98.5795, "RA_OF_ASC_NODE": 348.8134, "ARG_OF_PERICENTER": 88.1354, "MEAN_ANOMALY": 271.9957, "EPHEMERIS_TYPE": 0, "CLASSIFICATION_TYPE": "U", "NORAD_CAT_ID": 32382, "ELEMENT_SET_NO": 999, "REV_AT_EPOCH": 93894, "BSTAR": 9.7939e-05, "MEAN_MOTION_DOT": 2.09e-06, "MEAN_MOTION_DDOT": 0}, "tle": {"line1": "1 32382U 07061A   25344.18644624  .00000209  00000+0  97939-4 0  9996", "line2": "2 32382  98.5795 348.8134 0001130  88.1354 271.9957 14.29981149938949"}}, "geometry": {"type": "Point", "coordinates": [-51.24260657675773, 76.87412234557412]}}, {"type": "Feature", "properties": {"norad_id": 32783, "name": "CARTOSAT-2A", "group": "resource", "lat": -52.889772683093796, "lon": -156.05311433186438, "alt_km": 646.0161813158602, "timestamp": "2025-12-10T11:33:53.047853+00:00", "meta": {"OBJECT_NAME": "CARTOSAT-2A", "OBJECT_ID": "2008-021A", "EPOCH": "2025-12-10T04:00:59.541984", "MEAN_MOTION": 14.78929166, "ECCENTRICITY": 0.0012109, "INCLINATION": 97.7929, "RA_OF_ASC_NODE": 34.0709, "ARG_OF_PERICENTER": 12.6418, "MEAN_ANOMALY": 347.5095, "EPHEMERIS_TYPE": 0, "CLASSIFICATION_TYPE": "U", "NORAD_CAT_ID": 32783, "ELEMENT_SET_NO": 999, "REV_AT_EPOCH": 95086, "BSTAR": 0.00018438, "MEAN_MOTION_DOT": 1.311e-05, "MEAN_MOTION_DDOT": 0}, "tle": {"line1": "1 32783U 08021A   25344.16735581  .00001311  00000+0  18438-3 0  9990", "line2": "2 32783  97.7929  34.0709 0012109  12.6418 347.5095 14.78929166950860"}}, "geometry": {"type": "Point", "coordinates": [-156.05311433186438, -52.889772683093796]}}, {"type": "Feature", "properties": {"norad_id": 33320, "name": "HUANJING 1A (HJ-1A)", "group": "resource", "lat": 61.919635984294636, "lon": -41.72537262262813, "alt_km": 599.375530145815, "timestamp": "2025-12-10T11:33:53.047874+00:00", "meta": {"OBJECT_NAME": "HUANJING 1A (HJ-1A)", "OBJECT_ID": "2008-041A", "EPOCH": "2025-12-10T04:48:27.363744", "MEAN_MOTION": 14.83382341, "ECCENTRICITY": 0.0020373, "INCLINATION": 97.6542, "RA_OF_ASC_NODE": 332.6049, "ARG_OF_PERICENTER": 42.4277, "MEAN_ANOMALY": 317.8508, "EPHEMERIS_TYPE": 0, "CLASSIFICATION_TYPE": "U", "NORAD_CAT_ID": 33320, "ELEMENT_SET_NO": 999, "REV_AT_EPOCH": 93038, "BSTAR": 0.00035723, "MEAN_MOTION_DOT": 2.889e-05, "MEAN_MOTION_DDOT": 0}, "tle": {"line1": "1 33320U 08041A   25344.20031671  .00002889  00000+0  35723-3 0  9991", "line2": "2 33320  97.6542 332.6049 0020373  42.4277 317.8508 14.83382341930386"}}, "geometry": {"type": "Point", "coordinates": [-41.72537262262813, 61.919635984294636]}}, {"type": "Feature", "properties": {"norad_id": 33321, "name": "HUANJING 1B (HJ-1B)", "group": "resource", "lat": -70.13264628835691, "lon": -1.6164487994952017, "alt_km": 651.8852760780501, "timestamp": "2025-12-10T11:33:53.047890+00:00", "meta": {"OBJECT_NAME": "HUANJING 1B (HJ-1B)", "OBJECT_ID": "2008-041B", "EPOCH": "2025-12-10T03:47:26.275200", "MEAN_MOTION": 14.82811819, "ECCENTRICITY": 0.003829, "INCLINATION": 97.64, "RA_OF_ASC_NODE": 336.2679, "ARG_OF_PERICENTER": 83.8034, "MEAN_ANOMALY": 276.754, "EPHEMERIS_TYPE": 0, "CLASSIFICATION_TYPE": "U", "NORAD_CAT_ID": 33321, "ELEMENT_SET_NO": 999, "REV_AT_EPOCH": 93039, "BSTAR": 0.0002809, "MEAN_MOTION_DOT": 2.25e-05, "MEAN_MOTION_DDOT": 0}, "tle": {"line1": "1 33321U 08041B   25344.15794300  .00002250  00000+0  28090-3 0  9992", "line2": "2 33321  97.6400 336.2679 0038290  83.8034 276.7540 14.82811819930392"}}, "geometry": {"type": "Point", "coordinates": [-1.6164487994952017, -70.13264628835691]}}, {"type": "Feature", "properties": {"norad_id": 33331, "name": "GEOEYE 1", "group": "resource", "lat": 59.836586876690106, "lon": 41.55954899524838, "alt_km": 673.2393395614799, "timestamp": "2025-12-10T11:33:53.047901+00:00", "meta": {"OBJECT_NAME": "GEOEYE 1", "OBJECT_ID": "2008-042A", "EPOCH": "2025-12-10T04:43:48.742752", "MEAN_MOTION": 14.64806955, "ECCENTRICITY": 0.0002756, "INCLINATION": 98.1255, "RA_OF_ASC_NODE": 55.5096, "ARG_OF_PERICENTER": 287.8584, "MEAN_ANOMALY": 72.2318, "EPHEMERIS_TYPE": 0, "CLASSIFICATION_TYPE": "U", "NORAD_CAT_ID": 33331, "ELEMENT_SET_NO": 999, "REV_AT_EPOCH": 92248, "BSTAR": 0.00018726, "MEAN_MOTION_DOT": 9.51e-06, "MEAN_MOTION_DDOT": 0}, "tle": {"line1": "1 33331U 08042A   25344.19709193  .00000951  00000+0  18726-3 0  9995", "line2": "2 33331  98.1255  55.5096 0002756 287.8584  72.2318 14.64806955922483"}}, "geometry": {"type": "Point", "coordinates": [41.55954899524838, 59.836586876690106]}}, {"type": "Feature", "properties": {"norad_id": 33396, "name": "THEOS", "group": "resource", "lat": -76.44427610499422, "lon": 81.44195197360602, "alt_km": 833.1310144192757, "timestamp": "2025-12-10T11:33:53.047912+00:00", "meta": {"OBJECT_NAME": "THEOS", "OBJECT_ID": "2008-049A", "EPOCH": "2025-12-10T03:29:01.062816", "MEAN_MOTION": 14.20096366, "ECCENTRICITY": 0.0001108, "INCLINATION": 98.5866, "RA_OF_ASC_NODE": 42.311, "ARG_OF_PERICENTER": 96.1594, "MEAN_ANOMALY": 263.9709, "EPHEMERIS_TYPE": 0, "CLASSIFICATION_TYPE": "U", "NORAD_CAT_ID": 33396, "ELEMENT_SET_NO": 999, "REV_AT_EPOCH": 89113, "BSTAR": 0.00016507, "MEAN_MOTION_DOT": 3.09e-06, "MEAN_MOTION_DDOT": 0}, "tle": {"line1": "1 33396U 08049A   25344.14515119  .00000309  00000+0  16507-3 0  9993", "line2": "2 33396  98.5866  42.3110 0001108  96.1594 263.9709 14.20096366891138"}}, "geometry": {"type": "Point", "coordinates": [81.44195197360602, -76.44427610499422]}}, {"type": "Feature", "properties": {"norad_id": 33412, "name": "COSMO-SKYMED 3", "group": "resource", "lat": 35.509117415794954, "lon": -170.81137463526937, "alt_km": 557.228733924846, "timestamp": "2025-12-10T11:33:53.047929+00:00", "meta": {"OBJECT_NAME": "COSMO-SKYMED 3", "OBJECT_ID": "2008-054A", "EPOCH": "2025-12-10T03:25:42.847392", "MEAN_MOTION": 15.05312806, "ECCENTRICITY": 0.0015821, "INCLINATION": 97.8458, "RA_OF_ASC_NODE": 194.4906, "ARG_OF_PERICENTER": 182.869, "MEAN_ANOMALY": 177.2447, "EPHEMERIS_TYPE": 0, "CLASSIFICATION_TYPE": "U", "NORAD_CAT_ID": 33412, "ELEMENT_SET_NO": 999, "REV_AT_EPOCH": 92848, "BSTAR": 0.00049779, "MEAN_MOTION_DOT": 7.08e-05, "MEAN_MOTION_DDOT": 0}, "tle": {"line1": "1 33412U 08054A   25344.14285703  .00007080  00000+0  49779-3 0  9991", "line2": "2 33412  97.8458 194.4906 0015821 182.8690 177.2447 15.05312806928484"}}, "geometry": {"type": "Point", "coordinates": [-170.81137463526937, 35.509117415794954]}}, {"type": "Feature", "properties": {"norad_id": 33446, "name": "YAOGAN-4", "group": "resource", "lat": -21.110293445461135, "lon": 91.52306513662748, "alt_km": 632.4141003433297, "timestamp": "2025-12-10T11:33:53.047940+00:00", "meta": {"OBJECT_NAME": "YAOGAN-4", "OBJECT_ID": "2008-061A", "EPOCH": "2025-12-09T18:27:44.192736", "MEAN_MOTION": 14.82669066, "ECCENTRICITY": 0.0013834, "INCLINATION": 97.918, "RA_OF_ASC_NODE": 273.8977, "ARG_OF_PERICENTER": 333.4194, "MEAN_ANOMALY": 26.6309, "EPHEMERIS_TYPE": 0, "CLASSIFICATION_TYPE": "U", "NORAD_CAT_ID": 33446, "ELEMENT_SET_NO": 999, "REV_AT_EPOCH": 91759, "BSTAR": 0.000361, "MEAN_MOTION_DOT": 2.862e-05, "MEAN_MOTION_DDOT": 0}, "tle": {"line1": "1 33446U 08061A   25343.76926149  .00002862  00000+0  36100-3 0  9996", "line2": "2 33446  97.9180 273.8977 0013834 333.4194  26.6309 14.82669066917590"}}, "geometry": {"type": "Point", "coordinates": [91.52306513662748, -21.110293445461135]}}]}